NORAD_CAT_ID,OBJECT_NAME,OBJECT_TYPE,EPOCH,MEAN_MOTION,ECCENTRICITY,INCLINATION,RA_OF_ASC_NODE,ARG_OF_PERICENTER,MEAN_ANOMALY,BSTAR,MEAN_MOTION_DOT,MEAN_MOTION_DDOT,TLE_LINE0,TLE_LINE1,TLE_LINE2,SEMIMAJOR_AXIS,PERIOD,APOGEE,PERIGEE,DECAYED
49451.0,STARLINK-3125,PAYLOAD,2022-07-08 18:36:46,15.08841644,0.000343,53.219,114.2318,63.0428,297.0914,0.00016763,2.380000000000001e-05,0.0,0 STARLINK-3125,1 49451U 21104AV  22189.77553976  .00002380  00000-0  16763-3 0  9991,2 49451  53.2190 114.2318 0003430  63.0428 297.0914 15.08841644 36493,6917.875,95.437,542.113,537.368,0.0
49451.0,STARLINK-3125,PAYLOAD,2022-07-09 04:09:03,15.08857976,0.0003472,53.2191,112.4477,63.6746,296.4602,0.00029456,4.405e-05,0.0,0 STARLINK-3125,1 49451U 21104AV  22190.17296267  .00004405  00000-0  29456-3 0  9997,2 49451  53.2191 112.4477 0003472  63.6746 296.4602 15.08857976 37634,6917.825,95.436,542.092,537.289,0.0
49451.0,STARLINK-3125,PAYLOAD,2022-07-09 12:06:00,15.08844474,0.0003464,53.219,110.9612,63.7172,296.4176,0.00015115,2.118e-05,0.0,0 STARLINK-3125,1 49451U 21104AV  22190.50417437  .00002118  00000-0  15115-3 0  9994,2 49451  53.2190 110.9612 0003464  63.7172 296.4176 15.08844474 37682,6917.8669999999975,95.437,542.128,537.335,0.0
49451.0,STARLINK-3125,PAYLOAD,2022-07-10 03:59:55,15.08813961,0.0003084,53.2193,107.9876,66.3709,293.7607,-0.00022477,-3.862e-05,0.0,0 STARLINK-3125,1 49451U 21104AV  22191.16661188 -.00003862  00000-0 -22477-3 0  9999,2 49451  53.2193 107.9876 0003084  66.3709 293.7607 15.08813961 37783,6917.96,95.439,541.9580000000002,537.691,0.0
49451.0,STARLINK-3125,PAYLOAD,2022-07-10 18:18:23,15.08825397,0.0002509,53.2191,105.3091,70.2549,289.8714,-0.00014264,-2.557e-05,0.0,0 STARLINK-3125,1 49451U 21104AV  22191.76276699 -.00002557  00000-0 -14264-3 0  9999,2 49451  53.2191 105.3091 0002509  70.2549 289.8714 15.08825397 37870,6917.925,95.438,541.526,538.054,0.0
49451.0,STARLINK-3125,PAYLOAD,2022-07-11 02:15:17,15.08847498,0.0003116,53.2192,103.8246,65.3247,294.8069,-5.5483e-05,-1.172e-05,0.0,0 STARLINK-3125,1 49451U 21104AV  22192.09395365 -.00001172  00000-0 -55483-4 0  9999,2 49451  53.2192 103.8246 0003116  65.3247 294.8069 15.08847498 37922,6917.857,95.437,541.878,537.567,0.0
49451.0,STARLINK-3125,PAYLOAD,2022-07-11 18:09:09,15.08832334,0.0002862,53.2197,100.8517,67.6049,292.5246,0.00048449,7.429e-05,0.0,0 STARLINK-3125,1 49451U 21104AV  22192.75635467  .00007429  00000-0  48449-3 0  9994,2 49451  53.2197 100.8517 0002862  67.6049 292.5246 15.08832334 38024,6917.904,95.438,541.749,537.789,0.0
49451.0,STARLINK-3125,PAYLOAD,2022-07-11 21:19:55,15.08842162,0.0002908,53.2189,100.2572,66.3583,293.7714,0.00068785,0.00010677,0.0,0 STARLINK-3125,1 49451U 21104AV  22192.88884248  .00010677  00000-0  68785-3 0  9995,2 49451  53.2189 100.2572 0002908  66.3583 293.7714 15.08842162 36964,6917.874,95.437,541.75,537.727,0.0
49451.0,STARLINK-3125,PAYLOAD,2022-07-12 03:41:28,15.08858426,0.0002995,53.2183,99.0669,61.6902,298.4392,0.00065855,0.00010214,0.0,0 STARLINK-3125,1 49451U 21104AV  22193.15380101  .00010214  00000-0  65855-3 0  9997,2 49451  53.2183  99.0669 0002995  61.6902 298.4392 15.08858426 37009,6917.824000000001,95.436,541.761,537.617,0.0
49451.0,STARLINK-3125,PAYLOAD,2022-07-12 21:10:42,15.08861156,0.0002855,53.2184,95.7964,65.2936,294.8353,0.00025101,3.711e-05,0.0,0 STARLINK-3125,1 49451U 21104AV  22193.88243207  .00003711  00000-0  25101-3 0  9996,2 49451  53.2184  95.7964 0002855  65.2936 294.8353 15.08861156 37116,6917.816,95.436,541.656,537.706,0.0
49451.0,STARLINK-3125,PAYLOAD,2022-07-13 00:21:28,15.08859389,0.000267,53.2188,95.2012,64.6944,295.4325,0.00024945,3.686e-05,0.0,0 STARLINK-3125,1 49451U 21104AV  22194.01491100  .00003686  00000-0  24945-3 0  9995,2 49451  53.2188  95.2012 0002670  64.6944 295.4325 15.08859389 38219,6917.821,95.436,541.533,537.839,0.0
49451.0,STARLINK-3125,PAYLOAD,2022-07-13 09:53:46,15.08862414,0.0002648999999999,53.2188,93.4171,65.6921,294.4348,0.00025301,3.743e-05,0.0,0 STARLINK-3125,1 49451U 21104AV  22194.41234525  .00003743  00000-0  25301-3 0  9996,2 49451  53.2188  93.4171 0002649  65.6921 294.4348 15.08862414 37190,6917.812,95.436,541.509,537.844,0.0
49451.0,STARLINK-3125,PAYLOAD,2022-07-13 17:50:43,15.08835077,0.0002984,53.2201,91.9326,82.3351,277.798,-0.00033105,-5.553e-05,0.0,0 STARLINK-3125,1 49451U 21104AV  22194.74355665 -.00005553  00000-0 -33105-3 0  9995,2 49451  53.2201  91.9326 0002984  82.3351 277.7980 15.08835077 38323,6917.895,95.438,541.825,537.696,0.0
49451.0,STARLINK-3125,PAYLOAD,2022-07-14 09:44:34,15.0883535,0.0002323,53.2186,88.9577,62.2866,297.8361,-2.0725e-05,-6.18e-06,0.0,0 STARLINK-3125,1 49451U 21104AV  22195.40595977 -.00000618  00000-0 -20725-4 0  9993,2 49451  53.2186  88.9577 0002323  62.2866 297.8361 15.08835350 37345,6917.895,95.438,541.367,538.153,0.0
49451.0,STARLINK-3125,PAYLOAD,2022-07-14 19:16:53,15.08839206,0.0002449,53.2187,87.1733,63.2826,296.8417,0.0001446,2.014e-05,0.0,0 STARLINK-3125,1 49451U 21104AV  22195.80339966  .00002014  00000-0  14460-3 0  9999,2 49451  53.2187  87.1733 0002449  63.2826 296.8417 15.08839206 38488,6917.8830000000025,95.438,541.442,538.054,0.0
49451.0,STARLINK-3125,PAYLOAD,2022-07-14 20:52:16,15.08841337,0.0002447,53.2186,86.8764,62.214,297.91,0.00031266,4.691e-05,0.0,0 STARLINK-3125,1 49451U 21104AV  22195.86963991  .00004691  00000-0  31266-3 0  9992,2 49451  53.2186  86.8764 0002447  62.2140 297.9100 15.08841337 37414,6917.876,95.437,541.434,538.048,0.0
49451.0,STARLINK-3125,PAYLOAD,2022-07-15 09:35:21,15.08860951,0.0002387,53.2182,84.4976,60.7587,299.3643,0.00091451,0.00014305,0.0,0 STARLINK-3125,1 49451U 21104AV  22196.39955744  .00014305  00000-0  91451-3 0  9993,2 49451  53.2182  84.4976 0002387  60.7587 299.3643 15.08860951 38579,6917.816,95.436,541.3330000000002,538.03,0.0
49451.0,STARLINK-3125,PAYLOAD,2022-07-15 20:43:03,15.08863358,0.0002556,53.2182,82.4174,65.7223,294.4036,0.0006443999999999,9.989e-05,0.0,0 STARLINK-3125,1 49451U 21104AV  22196.86323335  .00009989  00000-0  64440-3 0  9990,2 49451  53.2182  82.4174 0002556  65.7223 294.4036 15.08863358 38641,6917.809,95.436,541.442,537.906,0.0
49451.0,STARLINK-3125,PAYLOAD,2022-07-16 03:04:35,15.08857875,0.0002404,53.2181,81.2266,61.4837,298.6397,0.00038578,5.86e-05,0.0,0 STARLINK-3125,1 49451U 21104AV  22197.12819212  .00005860  00000-0  38578-3 0  9991,2 49451  53.2181  81.2266 0002404  61.4837 298.6397 15.08857875 38682,6917.826,95.436,541.354,538.028,0.0
49451.0,STARLINK-3125,PAYLOAD,2022-07-16 04:39:58,15.08859467,0.0002399,53.218,80.9291,61.4274,298.6959,0.00040716,6.201e-05,0.0,0 STARLINK-3125,1 49451U 21104AV  22197.19443108  .00006201  00000-0  40716-3 0  9992,2 49451  53.2180  80.9291 0002399  61.4274 298.6959 15.08859467 37618,6917.821,95.436,541.345,538.026,0.0
49451.0,STARLINK-3125,PAYLOAD,2022-07-16 18:58:26,15.08851248,0.0002327,53.2179,78.2526,62.2587,297.8641,8.949799999999999e-05,1.137e-05,0.0,0 STARLINK-3125,1 49451U 21104AV  22197.79058804  .00001137  00000-0  89498-4 0  9997,2 49451  53.2179  78.2526 0002327  62.2587 297.8641 15.08851248 38781,6917.846,95.437,541.321,538.101,0.0
49451.0,STARLINK-3125,PAYLOAD,2022-07-16 22:09:13,15.08846426,0.0002167,53.2184,77.6555,58.5314,301.589,5.5834e-05,6.01e-06,0.0,0 STARLINK-3125,1 49451U 21104AV  22197.92306926  .00000601  00000-0  55834-4 0  9995,2 49451  53.2184  77.6555 0002167  58.5314 301.5890 15.08846426 37724,6917.861,95.437,541.225,538.227,0.0
49451.0,STARLINK-3125,PAYLOAD,2022-07-17 01:19:59,15.08838391,0.0002215,53.2183,77.0622,60.3674,299.7539,-9.6487e-05,-1.824e-05,0.0,0 STARLINK-3125,1 49451U 21104AV  22198.05555230 -.00001824  00000-0 -96487-4 0  9993,2 49451  53.2183  77.0622 0002215  60.3674 299.7539 15.08838391 38828,6917.885,95.438,541.283,538.2180000000002,0.0
49451.0,STARLINK-3125,PAYLOAD,2022-07-17 09:16:55,15.08846792,0.0002323,53.2188,75.5765,60.2598,299.8625,1.8757e-05,1e-07,0.0,0 STARLINK-3125,1 49451U 21104AV  22198.38675018  .00000010  00000-0  18757-4 0  9994,2 49451  53.2188  75.5765 0002323  60.2598 299.8625 15.08846792 37794,6917.86,95.437,541.332,538.118,0.0
49451.0,STARLINK-3125,PAYLOAD,2022-07-18 02:46:10,15.0884223,0.0002253,53.2198,72.305,65.3334,294.7892,-1.5603e-05,-5.37e-06,0.0,0 STARLINK-3125,1 49451U 21104AV  22199.11539389 -.00000537  00000-0 -15603-4 0  9999,2 49451  53.2198  72.3050 0002253  65.3334 294.7892 15.08842230 38988,6917.874,95.437,541.297,538.18,0.0
49451.0,STARLINK-3125,PAYLOAD,2022-07-18 09:07:43,15.08836343,0.0002247,53.2196,71.1155,62.28,297.842,-6.3422e-05,-1.297e-05,0.0,0 STARLINK-3125,1 49451U 21104AV  22199.38035935 -.00001297  00000-0 -63422-4 0  9992,2 49451  53.2196  71.1155 0002247  62.2800 297.8420 15.08836343 39021,6917.892,95.438,541.311,538.202,0.0
49451.0,STARLINK-3125,PAYLOAD,2022-07-18 18:40:01,15.08834946,0.0002161,53.2196,69.3313,64.8806,295.2411,3.143e-06,-2.38e-06,0.0,0 STARLINK-3125,1 49451U 21104AV  22199.77779877 -.00000238  00000-0  31430-5 0  9993,2 49451  53.2196  69.3313 0002161  64.8806 295.2411 15.08834946 38001,6917.896,95.438,541.256,538.266,0.0
49451.0,STARLINK-3125,PAYLOAD,2022-07-19 01:01:34,15.088372199999998,0.0002115,53.2197,68.1419,65.2561,294.8651,2.1417e-05,5.3e-07,0.0,0 STARLINK-3125,1 49451U 21104AV  22200.04275756  .00000053  00000-0  21417-4 0  9990,2 49451  53.2197  68.1419 0002115  65.2561 294.8651 15.08837220 38041,6917.889,95.438,541.217,538.2909999999998,0.0
49451.0,STARLINK-3125,PAYLOAD,2022-07-19 21:41:34,15.08840163,0.0002059,53.2199,64.2774,58.9495,301.17,0.00011031,1.468e-05,0.0,0 STARLINK-3125,1 49451U 21104AV  22200.90387534  .00001468  00000-0  11031-3 0  9994,2 49451  53.2199  64.2774 0002059  58.9495 301.1700 15.08840163 39257,6917.88,95.438,541.169,538.32,0.0
